[{"OBJECT_NAME":"FENGYUN 1C DEB","OBJECT_ID":"1999-025CEQ","EPOCH":"2024-10-18T13:00:08.775072","MEAN_MOTION":14.2696377,"ECCENTRICITY":0.0184586,"INCLINATION":99.0567,"RA_OF_ASC_NODE":195.2916,"ARG_OF_PERICENTER":207.1109,"MEAN_ANOMALY":152.0338,"EPHEMERIS_TYPE":0,"CLASSIFICATION_TYPE":"U","NORAD_CAT_ID":31741,"ELEMENT_SET_NO":999,"REV_AT_EPOCH":90085,"BSTAR":0.0024046,"MEAN_MOTION_DOT":6.959e-5,"MEAN_MOTION_DDOT":0},{"OBJECT_NAME":"FENGYUN 1C DEB","OBJECT_ID":"1999-025CES","EPOCH":"2024-10-28T04:57:31.555008","MEAN_MOTION":14.25457383,"ECCENTRICITY":0.0042118,"INCLINATION":99.1382,"RA_OF_ASC_NODE":204.7402,"ARG_OF_PERICENTER":329.7138,"MEAN_ANOMALY":185.2277,"EPHEMERIS_TYPE":0,"CLASSIFICATION_TYPE":"U","NORAD_CAT_ID":31743,"ELEMENT_SET_NO":999,"REV_AT_EPOCH":89778,"BSTAR":0.0081558,"MEAN_MOTION_DOT":0.00019443,"MEAN_MOTION_DDOT":0},{"OBJECT_NAME":"FENGYUN 1C DEB","OBJECT_ID":"1999-025CEV","EPOCH":"2024-10-28T05:40:40.883520","MEAN_MOTION":14.54658065,"ECCENTRICITY":0.0030322,"INCLINATION":98.585,"RA_OF_ASC_NODE":40.3903,"ARG_OF_PERICENTER":43.3201,"MEAN_ANOMALY":317.0371,"EPHEMERIS_TYPE":0,"CLASSIFICATION_TYPE":"U","NORAD_CAT_ID":31746,"ELEMENT_SET_NO":999,"REV_AT_EPOCH":91013,"BSTAR":0.0096107,"MEAN_MOTION_DOT":0.00041539,"MEAN_MOTION_DDOT":0},{"OBJECT_NAME":"FENGYUN 1C DEB","OBJECT_ID":"1999-025CEZ","EPOCH":"2024-10-26T00:53:09.405888","MEAN_MOTION":14.83924766,"ECCENTRICITY":0.006165,"INCLINATION":98.7181,"RA_OF_ASC_NODE":218.1057,"ARG_OF_PERICENTER":342.2,"MEAN_ANOMALY":17.7051,"EPHEMERIS_TYPE":0,"CLASSIFICATION_TYPE":"U","NORAD_CAT_ID":31750,"ELEMENT_SET_NO":999,"REV_AT_EPOCH":91890,"BSTAR":0.011961,"MEAN_MOTION_DOT":0.00104179,"MEAN_MOTION_DDOT":0},{"OBJECT_NAME":"FENGYUN 1C DEB","OBJECT_ID":"1999-025CFB","EPOCH":"2024-10-27T11:56:37.279680","MEAN_MOTION":13.88761897,"ECCENTRICITY":0.0370433,"INCLINATION":99.0093,"RA_OF_ASC_NODE":20.157,"ARG_OF_PERICENTER":16.8226,"MEAN_ANOMALY":344.4842,"EPHEMERIS_TYPE":0,"CLASSIFICATION_TYPE":"U","NORAD_CAT_ID":31752,"ELEMENT_SET_NO":999,"REV_AT_EPOCH":87872,"BSTAR":0.0042898,"MEAN_MOTION_DOT":8.937e-5,"MEAN_MOTION_DDOT":0},{"OBJECT_NAME":"FENGYUN 1C DEB","OBJECT_ID":"1999-025CFC","EPOCH":"2024-10-28T08:31:29.551296","MEAN_MOTION":14.17765939,"ECCENTRICITY":0.0159565,"INCLINATION":98.6824,"RA_OF_ASC_NODE":339.3204,"ARG_OF_PERICENTER":275.3489,"MEAN_ANOMALY":94.326,"EPHEMERIS_TYPE":0,"CLASSIFICATION_TYPE":"U","NORAD_CAT_ID":31753,"ELEMENT_SET_NO":999,"REV_AT_EPOCH":90202,"BSTAR":0.00091288,"MEAN_MOTION_DOT":2.066e-5,"MEAN_MOTION_DDOT":0},{"OBJECT_NAME":"FENGYUN 1C DEB","OBJECT_ID":"1999-025CFE","EPOCH":"2024-10-08T19:24:46.178784","MEAN_MOTION":14.07211337,"ECCENTRICITY":0.0191872,"INCLINATION":98.7635,"RA_OF_ASC_NODE":280.6697,"ARG_OF_PERICENTER":154.3105,"MEAN_ANOMALY":330.5895,"EPHEMERIS_TYPE":0,"CLASSIFICATION_TYPE":"U","NORAD_CAT_ID":31755,"ELEMENT_SET_NO":999,"REV_AT_EPOCH":57622,"BSTAR":0.0021322,"MEAN_MOTION_DOT":4.186e-5,"MEAN_MOTION_DDOT":0},{"OBJECT_NAME":"FENGYUN 1C DEB","OBJECT_ID":"1999-025CFF","EPOCH":"2024-10-12T01:12:07.362144","MEAN_MOTION":14.36215621,"ECCENTRICITY":0.0049561,"INCLINATION":99.3367,"RA_OF_ASC_NODE":14.0174,"ARG_OF_PERICENTER":327.7464,"MEAN_ANOMALY":32.0691,"EPHEMERIS_TYPE":0,"CLASSIFICATION_TYPE":"U","NORAD_CAT_ID":31756,"ELEMENT_SET_NO":999,"REV_AT_EPOCH":54561,"BSTAR":0.0098808,"MEAN_MOTION_DOT":0.00029317,"MEAN_MOTION_DDOT":0},{"OBJECT_NAME":"FENGYUN 1C DEB","OBJECT_ID":"1999-025CFG","EPOCH":"2024-10-11T21:46:18.310368","MEAN_MOTION":14.06829869,"ECCENTRICITY":0.0219493,"INCLINATION":98.812,"RA_OF_ASC_NODE":313.2138,"ARG_OF_PERICENTER":206.6809,"MEAN_ANOMALY":152.2931,"EPHEMERIS_TYPE":0,"CLASSIFICATION_TYPE":"U","NORAD_CAT_ID":31757,"ELEMENT_SET_NO":999,"REV_AT_EPOCH":89839,"BSTAR":0.0016822,"MEAN_MOTION_DOT":3.442e-5,"MEAN_MOTION_DDOT":0},{"OBJECT_NAME":"FENGYUN 1C DEB","OBJECT_ID":"1999-025CFH","EPOCH":"2024-10-27T00:33:28.139904","MEAN_MOTION":14.26984431,"ECCENTRICITY":0.0371327,"INCLINATION":98.0926,"RA_OF_ASC_NODE":329.6882,"ARG_OF_PERICENTER":250.6891,"MEAN_ANOMALY":105.3791,"EPHEMERIS_TYPE":0,"CLASSIFICATION_TYPE":"U","NORAD_CAT_ID":31758,"ELEMENT_SET_NO":999,"REV_AT_EPOCH":88295,"BSTAR":0.0050599,"MEAN_MOTION_DOT":0.00025779,"MEAN_MOTION_DDOT":0},{"OBJECT_NAME":"FENGYUN 1C DEB","OBJECT_ID":"1999-025CFK","EPOCH":"2024-10-28T15:11:55.556160","MEAN_MOTION":14.27948687,"ECCENTRICITY":0.0053397,"INCLINATION":99.2776,"RA_OF_ASC_NODE":8.938,"ARG_OF_PERICENTER":297.2346,"MEAN_ANOMALY":62.3398,"EPHEMERIS_TYPE":0,"CLASSIFICATION_TYPE":"U","NORAD_CAT_ID":31760,"ELEMENT_SET_NO":999,"REV_AT_EPOCH":90274,"BSTAR":0.002757,"MEAN_MOTION_DOT":6.894e-5,"MEAN_MOTION_DDOT":0},{"OBJECT_NAME":"FENGYUN 1C DEB","OBJECT_ID":"1999-025CFN","EPOCH":"2024-10-28T09:47:47.284224","MEAN_MOTION":13.47967393,"ECCENTRICITY":0.0556066,"INCLINATION":98.4798,"RA_OF_ASC_NODE":103.0257,"ARG_OF_PERICENTER":51.5828,"MEAN_ANOMALY":341.0384,"EPHEMERIS_TYPE":0,"CLASSIFICATION_TYPE":"U","NORAD_CAT_ID":31763,"ELEMENT_SET_NO":999,"REV_AT_EPOCH":85472,"BSTAR":0.0022699,"MEAN_MOTION_DOT":3.616e-5,"MEAN_MOTION_DDOT":0}]