FENGYUN 1C DEB          
1 31741U 99025CEQ 24292.54176823  .00006959  00000+0  24046-2 0  9992
2 31741  99.0567 195.2916 0184586 207.1109 152.0338 14.26963770900858
FENGYUN 1C DEB          
1 31743U 99025CES 24302.20661522  .00019443  00000+0  81558-2 0  9997
2 31743  99.1382 204.7402 0042118 329.7138 185.2277 14.25457383897783
FENGYUN 1C DEB          
1 31746U 99025CEV 24302.23658430  .00041539  00000+0  96107-2 0  9994
2 31746  98.5850  40.3903 0030322  43.3201 317.0371 14.54658065910130
FENGYUN 1C DEB          
1 31750U 99025CEZ 24300.03691442  .00104179  00000+0  11961-1 0  9999
2 31750  98.7181 218.1057 0061650 342.2000  17.7051 14.83924766918880
FENGYUN 1C DEB          
1 31752U 99025CFB 24301.49765370  .00008937  00000+0  42898-2 0  9993
2 31752  99.0093  20.1570 0370433  16.8226 344.4842 13.88761897878729
FENGYUN 1C DEB          
1 31753U 99025CFC 24302.35520314  .00002066  00000+0  91288-3 0  9992
2 31753  98.6824 339.3204 0159565 275.3489  94.3260 14.17765939902020
FENGYUN 1C DEB          
1 31755U 99025CFE 24282.80886781  .00004186  00000+0  21322-2 0  9990
2 31755  98.7635 280.6697 0191872 154.3105 330.5895 14.07211337576220
FENGYUN 1C DEB          
1 31756U 99025CFF 24286.05008521  .00029317  00000+0  98808-2 0  9996
2 31756  99.3367  14.0174 0049561 327.7464  32.0691 14.36215621545619
FENGYUN 1C DEB          
1 31757U 99025CFG 24285.90715637  .00003442  00000+0  16822-2 0  9990
2 31757  98.8120 313.2138 0219493 206.6809 152.2931 14.06829869898396
FENGYUN 1C DEB          
1 31758U 99025CFH 24301.02324236  .00025779  00000+0  50599-2 0  9990
2 31758  98.0926 329.6882 0371327 250.6891 105.3791 14.26984431882952
FENGYUN 1C DEB          
1 31760U 99025CFK 24302.63328190  .00006894  00000+0  27570-2 0  9994
2 31760  99.2776   8.9380 0053397 297.2346  62.3398 14.27948687902746
FENGYUN 1C DEB          
1 31763U 99025CFN 24302.40818616  .00003616  00000+0  22699-2 0  9995
2 31763  98.4798 103.0257 0556066  51.5828 341.0384 13.47967393854723
